2026-134H               
1 69545U 26134H   26176.73797244  .00006619  00000+0  41322-3 0  9996
2 69545  97.7034 246.8832 0014468 247.8284 112.1410 15.09746416  1589
STARLINK-37880          
1 69546U 26135A   26177.16668980  .00012857  00000+0  67659-4 0  9993
2 69546  97.2832 204.6812 0001331  91.8735  50.5243 15.80850340  2754
STARLINK-37881          
1 69547U 26135B   26177.16668980  .00027742  00000+0  14489-3 0  9995
2 69547  97.2832 204.6831 0001217  99.4083  46.2292 15.80850108  2757
STARLINK-37265          
1 69548U 26135C   26177.16668980  .00102243  00000+0  52861-3 0  9992
2 69548  97.2833 204.6830 0001320  88.5884  60.8907 15.80802736  2750
STARLINK-37871          
1 69549U 26135D   26177.16668980 -.00029958  00000+0 -15592-3 0  9996
2 69549  97.2834 204.6857 0001389  77.9313  76.8326 15.80853912  2759
STARLINK-37865          
1 69550U 26135E   26177.16668980 -.00054405  00000+0 -28443-3 0  9992
2 69550  97.2836 204.6890 0001124  76.3509  86.6328 15.80864589  2750
STARLINK-37862          
1 69551U 26135F   26177.16668980  .00000725  00000+0  45164-5 0  9998
2 69551  97.2835 204.6967 0000743 103.9774  74.9479 15.80848121  2753
STARLINK-37861          
1 69552U 26135G   26177.16668980 -.00012015  00000+0 -61981-4 0  9990
2 69552  97.2836 204.7007 0001444  88.6683 101.0784 15.80848240  2751
STARLINK-37859          
1 69553U 26135H   26177.16668980  .00010389  00000+0  54855-4 0  9993
2 69553  97.2838 204.7030 0001326  91.8029 103.2710 15.80838779  2758
STARLINK-37860          
1 69554U 26135J   26177.16668980  .00001601  00000+0  90877-5 0  9996
2 69554  97.2837 204.7036 0001385  87.5772 109.0642 15.80836659  2759
STARLINK-37858          
1 69555U 26135K   26177.16668980  .00005636  00000+0  30107-4 0  9998
2 69555  97.2837 204.7087 0000872  88.0485 118.9096 15.80845673  2751
STARLINK-37927          
1 69556U 26135L   26177.16668980 -.00002703  00000+0 -13355-4 0  9999
2 69556  97.2837 204.7091 0000822  89.3485 118.9806 15.80847820  2751
STARLINK-37929          
1 69557U 26135M   26177.16668980  .00000703  00000+0  44037-5 0  9998
2 69557  97.2839 204.7108 0001418  82.3277 130.7495 15.80848712  2754
STARLINK-37954          
1 69558U 26135N   26177.16668980  .00023818  00000+0  12467-3 0  9991
2 69558  97.2838 204.7139 0000842  66.2949 153.7233 15.80830751  2754
STARLINK-37958          
1 69559U 26135P   26177.16668980 -.00030474  00000+0 -15864-3 0  9994
2 69559  97.2839 204.7201 0000786  91.8232 142.1957 15.80854342  2759
STARLINK-37950          
1 69560U 26135Q   26177.16668980 -.00027571  00000+0 -14343-3 0  9991
2 69560  97.2840 204.7199 0001095  96.1827 138.6643 15.80849939  2759
STARLINK-37952          
1 69561U 26135R   26177.16668980  .00026312  00000+0  13758-3 0  9991
2 69561  97.2838 204.7238 0001228  86.5849 156.2192 15.80834773  2751
STARLINK-37935          
1 69562U 26135S   26177.16668980 -.00051248  00000+0 -26775-3 0  9993
2 69562  97.2836 204.7258 0000590  88.6290 158.5681 15.80868848  2754
STARLINK-37936          
1 69563U 26135T   26177.16668980 -.00044725  00000+0 -23348-3 0  9999
2 69563  97.2833 204.7421 0001153  87.5348 199.5715 15.80860183  2759
STARLINK-37932          
1 69564U 26135U   26177.16668980 -.00040280  00000+0 -21013-3 0  9999
2 69564  97.2832 204.7429 0001118  93.5548 195.5851 15.80857118  2758
STARLINK-37916          
1 69565U 26135V   26177.16668980 -.00067399  00000+0 -35296-3 0  9998
2 69565  97.2832 204.7445 0001044  83.4171 208.8378 15.80871457  2759
STARLINK-37909          
1 69566U 26135W   26177.16668980 -.00006560  00000+0 -33465-4 0  9999
2 69566  97.2828 204.7615 0001093  67.7771 260.3720 15.80860284  2759
STARLINK-37934          
1 69567U 26135X   26177.16668980 -.00079988  00000+0 -41943-3 0  9993
2 69567  97.2832 204.7531 0001135  78.7629 231.1586 15.80881724  2751
STARLINK-37938          
1 69568U 26135Y   26177.16668980 -.00054839  00000+0 -28662-3 0  9995
2 69568  97.2828 204.7592 0000659 106.3141 217.5139 15.80873331  2758
STARLINK-37924          
1 69569U 26135Z   26177.16668980 -.00064658  00000+0 -33856-3 0  9997
2 69569  97.2829 204.7648 0001018  89.2667 250.2613 15.80865715  2752
SHIJIAN-31 (SJ-31)      
1 69570U 26136A   26176.81825818  .00000236  00000+0  00000+0 0  9997
2 69570  63.4765 355.1886 6941110 171.7658 212.4595  1.92222586   255
GUOWANG OBJECT A        
1 69572U 26137A   26175.62604037  .00000074  00000+0  17259-3 0  9994
2 69572  50.0003 225.7306 0012385 251.0733 108.8824 13.91753886  1052
GUOWANG OBJECT B        
1 69573U 26137B   26176.41574519  .00000028  00000+0  14028-3 0  9994
2 69573  49.9937 222.5656 0011712 251.5364 108.4262 13.90147741  1178
GUOWANG OBJECT C        
1 69574U 26137C   26175.33791578  .00000033  00000+0  14002-3 0  9999
2 69574  49.9965 226.8623 0011755 249.2244 110.7396 13.91926960  1026
