OBJECT_NAME,OBJECT_ID,EPOCH,MEAN_MOTION,ECCENTRICITY,INCLINATION,RA_OF_ASC_NODE,ARG_OF_PERICENTER,MEAN_ANOMALY,EPHEMERIS_TYPE,CLASSIFICATION_TYPE,NORAD_CAT_ID,ELEMENT_SET_NO,REV_AT_EPOCH,BSTAR,MEAN_MOTION_DOT,MEAN_MOTION_DDOT
2026-134H,2026-134H,2026-06-25T17:42:40.818816,15.09746416,.0014468,97.7034,246.8832,247.8284,112.1410,0,U,69545,999,158,.41322E-3,.6619E-4,0
STARLINK-37880,2026-135A,2026-06-26T04:00:01.998720,15.80850340,.0001331,97.2832,204.6812,91.8735,50.5243,0,U,69546,999,275,.67659E-4,.12857E-3,0
STARLINK-37881,2026-135B,2026-06-26T04:00:01.998720,15.80850108,.0001217,97.2832,204.6831,99.4083,46.2292,0,U,69547,999,275,.14489E-3,.27742E-3,0
STARLINK-37265,2026-135C,2026-06-26T04:00:01.998720,15.80802736,.000132,97.2833,204.6830,88.5884,60.8907,0,U,69548,999,275,.52861E-3,.102243E-2,0
STARLINK-37871,2026-135D,2026-06-26T04:00:01.998720,15.80853912,.0001389,97.2834,204.6857,77.9313,76.8326,0,U,69549,999,275,-.15592E-3,-.29958E-3,0
STARLINK-37865,2026-135E,2026-06-26T04:00:01.998720,15.80864589,.0001124,97.2836,204.6890,76.3509,86.6328,0,U,69550,999,275,-.28443E-3,-.54405E-3,0
STARLINK-37862,2026-135F,2026-06-26T04:00:01.998720,15.80848121,.0000743,97.2835,204.6967,103.9774,74.9479,0,U,69551,999,275,.45164E-5,.725E-5,0
STARLINK-37861,2026-135G,2026-06-26T04:00:01.998720,15.80848240,.0001444,97.2836,204.7007,88.6683,101.0784,0,U,69552,999,275,-.61981E-4,-.12015E-3,0
STARLINK-37859,2026-135H,2026-06-26T04:00:01.998720,15.80838779,.0001326,97.2838,204.7030,91.8029,103.2710,0,U,69553,999,275,.54855E-4,.10389E-3,0
STARLINK-37860,2026-135J,2026-06-26T04:00:01.998720,15.80836659,.0001385,97.2837,204.7036,87.5772,109.0642,0,U,69554,999,275,.90877E-5,.1601E-4,0
STARLINK-37858,2026-135K,2026-06-26T04:00:01.998720,15.80845673,.0000872,97.2837,204.7087,88.0485,118.9096,0,U,69555,999,275,.30107E-4,.5636E-4,0
STARLINK-37927,2026-135L,2026-06-26T04:00:01.998720,15.80847820,.0000822,97.2837,204.7091,89.3485,118.9806,0,U,69556,999,275,-.13355E-4,-.2703E-4,0
STARLINK-37929,2026-135M,2026-06-26T04:00:01.998720,15.80848712,.0001418,97.2839,204.7108,82.3277,130.7495,0,U,69557,999,275,.44037E-5,.703E-5,0
STARLINK-37954,2026-135N,2026-06-26T04:00:01.998720,15.80830751,.0000842,97.2838,204.7139,66.2949,153.7233,0,U,69558,999,275,.12467E-3,.23818E-3,0
STARLINK-37958,2026-135P,2026-06-26T04:00:01.998720,15.80854342,.0000786,97.2839,204.7201,91.8232,142.1957,0,U,69559,999,275,-.15864E-3,-.30474E-3,0
STARLINK-37950,2026-135Q,2026-06-26T04:00:01.998720,15.80849939,.0001095,97.2840,204.7199,96.1827,138.6643,0,U,69560,999,275,-.14343E-3,-.27571E-3,0
STARLINK-37952,2026-135R,2026-06-26T04:00:01.998720,15.80834773,.0001228,97.2838,204.7238,86.5849,156.2192,0,U,69561,999,275,.13758E-3,.26312E-3,0
STARLINK-37935,2026-135S,2026-06-26T04:00:01.998720,15.80868848,.000059,97.2836,204.7258,88.6290,158.5681,0,U,69562,999,275,-.26775E-3,-.51248E-3,0
STARLINK-37936,2026-135T,2026-06-26T04:00:01.998720,15.80860183,.0001153,97.2833,204.7421,87.5348,199.5715,0,U,69563,999,275,-.23348E-3,-.44725E-3,0
STARLINK-37932,2026-135U,2026-06-26T04:00:01.998720,15.80857118,.0001118,97.2832,204.7429,93.5548,195.5851,0,U,69564,999,275,-.21013E-3,-.4028E-3,0
STARLINK-37916,2026-135V,2026-06-26T04:00:01.998720,15.80871457,.0001044,97.2832,204.7445,83.4171,208.8378,0,U,69565,999,275,-.35296E-3,-.67399E-3,0
STARLINK-37909,2026-135W,2026-06-26T04:00:01.998720,15.80860284,.0001093,97.2828,204.7615,67.7771,260.3720,0,U,69566,999,275,-.33465E-4,-.656E-4,0
STARLINK-37934,2026-135X,2026-06-26T04:00:01.998720,15.80881724,.0001135,97.2832,204.7531,78.7629,231.1586,0,U,69567,999,275,-.41943E-3,-.79988E-3,0
STARLINK-37938,2026-135Y,2026-06-26T04:00:01.998720,15.80873331,.0000659,97.2828,204.7592,106.3141,217.5139,0,U,69568,999,275,-.28662E-3,-.54839E-3,0
STARLINK-37924,2026-135Z,2026-06-26T04:00:01.998720,15.80865715,.0001018,97.2829,204.7648,89.2667,250.2613,0,U,69569,999,275,-.33856E-3,-.64658E-3,0
SHIJIAN-31 (SJ-31),2026-136A,2026-06-25T19:38:17.506752,1.92222586,.694111,63.4765,355.1886,171.7658,212.4595,0,U,69570,999,25,0,.236E-5,0
GUOWANG OBJECT A,2026-137A,2026-06-24T15:01:29.887968,13.91753886,.0012385,50.0003,225.7306,251.0733,108.8824,0,U,69572,999,105,.17258927E-3,.74E-6,0
GUOWANG OBJECT B,2026-137B,2026-06-25T09:58:40.384416,13.90147741,.0011712,49.9937,222.5656,251.5364,108.4262,0,U,69573,999,117,.14028E-3,.28E-6,0
GUOWANG OBJECT C,2026-137C,2026-06-24T08:06:35.923392,13.91926960,.00117555,49.9965,226.8623,249.2244,110.7396,0,U,69574,999,102,.14001882E-3,.33E-6,0
